[
  {
    "name": "STARLINK-30103",
    "tle1": "1 56290U 23056E   25311.54479986 -.00000823  00000+0 -45850-4 0  9992",
    "tle2": "2 56290  43.0034 153.6888 0001266 271.3173  88.7525 15.02531477141653"
  },
  {
    "name": "STARLINK-33566",
    "tle1": "1 62100U 24220N   25311.63115249  .00031582  00000+0  11532-2 0  9994",
    "tle2": "2 62100  43.0020 160.1582 0001232 283.6881  76.3834 15.27554178 54697"
  },
  {
    "name": "STARLINK-31152",
    "tle1": "1 58734U 24005G   25311.87890935  .00000069  00000+0  20158-4 0  9993",
    "tle2": "2 58734  43.0043 163.8912 0001506 250.6819 109.3861 15.02544591102092"
  },
  {
    "name": "IRIDIUM 33 DEB",
    "tle1": "1 34366U 97051FJ  25311.36708822  .00009148  00000+0  21836-2 0  9995",
    "tle2": "2 34366  86.3707  64.6861 0019708 260.2585 158.7707 14.53484312876684"
  },
  {
    "name": "STARLINK-34084",
    "tle1": "1 63970U 25099U   25311.95596882  .00039683  00000+0  14438-2 0  9994",
    "tle2": "2 63970  42.9988 143.2761 0001617 256.1982 103.8690 15.27581012 28727"
  },
  {
    "name": "THORAD AGENA D DEB",
    "tle1": "1 04174U 69082AS  25311.47802286  .00001752  00000+0  63240-3 0  9992",
    "tle2": "2 04174  69.9898  85.3858 0047842 268.5065  91.0580 14.34584374910030"
  },
  {
    "name": "NOAA 16 DEB",
    "tle1": "1 41071U 00055AE  25311.82166796  .00006579  00000+0  26674-2 0  9993",
    "tle2": "2 41071  98.8179  52.7106 0009529 269.3564  90.6524 14.27990561514266"
  },
  {
    "name": "COSMOS 1195",
    "tle1": "1 11878U 80058D   25312.21374199  .00000014  00000+0  19215-3 0  9990",
    "tle2": "2 11878  74.0184 226.1980 0015376  64.1968  51.2802 12.50612310 69739"
  },
  {
    "name": "STARLINK-34351",
    "tle1": "1 64387U 25127T   25311.89141450  .00028713  00000+0  10496-2 0  9991",
    "tle2": "2 64387  42.9995 147.2760 0001533 258.4794 101.5885 15.27558309 23846"
  },
  {
    "name": "TBA - TO BE ASSIGNED",
    "tle1": "1 87468U 93036    23029.12400953 +.00022902 +00000-0 +22471-2 0  9997",
    "tle2": "2 87468 074.0232 171.4723 0054368 200.0699 159.8347 14.91017429324059"
  },
  {
    "name": "NOAA 16 DEB",
    "tle1": "1 41198U 00055DB  25311.55043735  .00021288  00000+0  68116-2 0  9991",
    "tle2": "2 41198  98.9180  52.1453 0022279 103.1519 257.2155 14.39431737509825"
  },
  {
    "name": "STARLINK-6145",
    "tle1": "1 56389U 23061R   25311.80878713  .00001500  00000+0  12608-3 0  9992",
    "tle2": "2 56389  43.0029 139.4652 0001208 266.6581  93.4123 15.02540389138423"
  },
  {
    "name": "STARLINK-3571",
    "tle1": "1 51857U 22022F   25312.01975752 -.00000296  00000+0 -52501-6 0  9990",
    "tle2": "2 51857  53.2167 205.3314 0001616  89.1578 270.9600 15.08837114204651"
  },
  {
    "name": "STARLINK-3176",
    "tle1": "1 51106U 22005C   25311.74371708 -.00000438  00000+0 -94153-5 0  9994",
    "tle2": "2 51106  53.2163 116.5558 0001282  89.9605 270.1534 15.08835113210466"
  },
  {
    "name": "TBA - TO BE ASSIGNED",
    "tle1": "1 81409U 87068    24311.29211961 +.00489224 +00000-0 +33150-1 0  9995",
    "tle2": "2 81409 082.6279 154.4309 0015779 089.2449 271.0585 15.04254154133566"
  },
  {
    "name": "STARLINK-32514",
    "tle1": "1 61965U 24210G   25311.88986609  .00028947  00000+0  10569-2 0  9994",
    "tle2": "2 61965  42.9943 140.6470 0000750 292.4440  67.6332 15.27592747 56365"
  },
  {
    "name": "STARLINK-34924",
    "tle1": "1 65469U 25195M   25312.15205323  .00065836  00000+0  16400-2 0  9996",
    "tle2": "2 65469  53.1595 103.5732 0000968  85.7931 274.3185 15.39651344 11370"
  },
  {
    "name": "N-1 DEB",
    "tle1": "1 13510U 82087C   25311.88228281  .00001177  00000+0  15904-2 0  9992",
    "tle2": "2 13510  44.5741 126.4996 0169382 141.7876 359.0219 13.59019653581169"
  },
  {
    "name": "TBA - TO BE ASSIGNED",
    "tle1": "1 T0316U          25060.98415693  .00006728  00000-0  32558-2 0  9996",
    "tle2": "2 T0316  81.2099 320.5681 0011623  32.1349 328.0533 14.18348172223562"
  },
  {
    "name": "STARLINK-11534 [DTC]",
    "tle1": "1 62555U 25006B   25311.85190536  .00255447  00000+0  19251-2 0  9991",
    "tle2": "2 62555  43.0002 154.0118 0002146 267.8719  92.1903 15.70946248 47446"
  },
  {
    "name": "SAUDISAT 1C (SO-50)",
    "tle1": "1 27607U 02058C   25311.79019419  .00002822  00000+0  35668-3 0  9993",
    "tle2": "2 27607  64.5524  93.5989 0070090 303.0432  56.3954 14.82185553231633"
  },
  {
    "name": "GEESAT-4 05",
    "tle1": "1 65123U 25170E   25311.99741057  .00004520  00000+0  52438-3 0  9991",
    "tle2": "2 65123  49.9902 119.9704 0020702 278.2059  81.6532 14.86911374 13583"
  },
  {
    "name": "DELTA 1 DEB",
    "tle1": "1 07892U 72058BJ  25312.07053032  .00003754  00000+0  55783-3 0  9990",
    "tle2": "2 07892  98.5821 246.1048 0099549  60.3321 300.7752 14.72317762652600"
  },
  {
    "name": "ONEWEB-0086",
    "tle1": "1 45456U 20020AJ  25311.73854188 -.00000692  00000+0 -19872-2 0  9991",
    "tle2": "2 45456  87.8863  65.1484 0002295 113.0494 247.0876 13.11417491273585"
  },
  {
    "name": "FENGYUN 1C DEB",
    "tle1": "1 30669U 99025AQB 25312.11032477  .00003968  00000+0  24458-2 0  9997",
    "tle2": "2 30669  98.6330 250.5635 0119778 274.9978  99.7712 14.02510700949681"
  },
  {
    "name": "STARLINK-34799",
    "tle1": "1 65472U 25195Q   25312.15238398  .00074520  00000+0  18510-2 0  9992",
    "tle2": "2 65472  53.1590 103.5751 0001882  79.0397 281.0819 15.39683046 11359"
  },
  {
    "name": "COSMOS 1975",
    "tle1": "1 19573U 88093A   25311.89802515  .00012171  00000+0  47654-3 0  9993",
    "tle2": "2 19573  82.5218 239.6824 0009520 235.1790 124.8553 15.25643104   829"
  },
  {
    "name": "DELTA 1 DEB",
    "tle1": "1 21387U 75052DH  25312.08502288  .00000438  00000+0  79299-3 0  9999",
    "tle2": "2 21387  99.4747 249.6218 0046622  90.4810 287.9976 13.46230133689958"
  },
  {
    "name": "NINGXIA-1 7",
    "tle1": "1 49019U 21064B   25312.02975302  .00000007  00000+0  80143-4 0  9993",
    "tle2": "2 49019  45.0018 146.3827 0007337 262.4577  97.5426 14.08444871223064"
  },
  {
    "name": "STARLINK-11092 [DTC]",
    "tle1": "1 59710U 24088C   25311.92081441  .00004628  00000+0  42979-4 0  9999",
    "tle2": "2 59710  53.1595 206.7997 0001244 105.1624 254.9531 15.69745396 87146"
  },
  {
    "name": "STARLINK-2626",
    "tle1": "1 48363U 21038L   25312.16668980  .00181323  00000+0  16817-2 0  9997",
    "tle2": "2 48363  53.0515 112.1167 0005137 269.3343 112.9674 15.66380580  5928"
  },
  {
    "name": "STARLINK-6174",
    "tle1": "1 57366U 23099AQ  25311.68166795 -.00000214  00000+0 -77928-6 0  9997",
    "tle2": "2 57366  43.0071 178.8790 0001335 259.2527 100.8165 15.02535899127916"
  },
  {
    "name": "BREEZE-M DEB",
    "tle1": "1 32030U 06006H   25307.18139778  .00008143  00000+0  25641-2 0  9996",
    "tle2": "2 32030  51.6951 187.3601 4753166 255.1571  49.2685  5.96828389377550"
  },
  {
    "name": "COSMOS 272",
    "tle1": "1 03818U 69024A   25312.16510830  .00000188  00000+0  53115-3 0  9992",
    "tle2": "2 03818  73.9908 229.4595 0018280 107.6228 359.5891 13.17941961724734"
  },
  {
    "name": "GSAT0214 (GALILEO 18)",
    "tle1": "1 41862U 16069D   25311.97080253  .00000039  00000+0  00000+0 0  9999",
    "tle2": "2 41862  55.3593 107.2086 0000718 317.2242  42.7510  1.70474406 55871"
  },
  {
    "name": "COSMOS 1823 DEB",
    "tle1": "1 39823U 87020EX  25310.11792170  .00000310  00000+0  22752-2 0  9994",
    "tle2": "2 39823  73.7083  75.5601 0053634 346.6890 192.9166 12.45404004999450"
  },
  {
    "name": "STARLINK-33564",
    "tle1": "1 62286U 24237V   25311.69981016  .00032057  00000+0  11701-2 0  9992",
    "tle2": "2 62286  42.9999 185.4305 0001279 249.2407 110.8307 15.27559617 52534"
  },
  {
    "name": "STARLINK-5164",
    "tle1": "1 54178U 22141X   25311.95207499  .00006596  00000+0  43208-3 0  9997",
    "tle2": "2 54178  53.2147 190.2959 0001258  83.3926 276.7209 15.08844470167481"
  },
  {
    "name": "STARLINK-31707",
    "tle1": "1 59736U 24090G   25311.82692613 -.00001255  00000+0 -36090-4 0  9990",
    "tle2": "2 59736  43.0035 151.6401 0001279 277.4444  82.6262 15.27565979 84808"
  },
  {
    "name": "FENGYUN 1C DEB",
    "tle1": "1 36651U 99025DXV 11252.06907938  .00006104  00000-0  15801-2 0  9997",
    "tle2": "2 36651  98.3765 188.7091 0253905  54.3960 308.4175 14.32652091178193"
  },
  {
    "name": "BREEZE-M DEB [TANK]",
    "tle1": "1 37750U 11035C   25311.35432895  .00000052  00000+0  46118-3 0  9992",
    "tle2": "2 37750  45.1756 147.7372 6307654 223.1596  65.0794  3.31052691172823"
  },
  {
    "name": "THORAD AGENA D DEB",
    "tle1": "1 04928U 70025FU  25311.43676058 -.00000254  00000+0 -72569-3 0  9992",
    "tle2": "2 04928  99.7480 252.1672 0433795  74.7752  39.3460 12.73274027570686"
  },
  {
    "name": "CZ-6A R/B",
    "tle1": "1 66051U 25233U   25312.11551455  .00000490  00000+0  99721-4 0  9997",
    "tle2": "2 66051  89.0292  65.9396 0085484  45.4153 315.3992 14.57016340  3173"
  },
  {
    "name": "JILIN-1 GAOFEN 3D05",
    "tle1": "1 52390U 22046C   25312.15359588  .00073088  00000+0  11761-2 0  9993",
    "tle2": "2 52390  97.4876  54.2329 0000307 187.4572 172.6676 15.52730293195930"
  },
  {
    "name": "STARLINK-31814",
    "tle1": "1 59802U 24093W   25311.89561198 -.00000898  00000+0 -23107-4 0  9994",
    "tle2": "2 59802  43.0069 177.1376 0001608 264.5917  95.4752 15.27578411 84060"
  },
  {
    "name": "FENGYUN 1C DEB",
    "tle1": "1 30705U 99025ARP 25311.74904309  .00002725  00000+0  22792-2 0  9997",
    "tle2": "2 30705 102.1816  45.8807 0196551   5.9565 145.7656 13.81087990935260"
  },
  {
    "name": "COSMOS 2593",
    "tle1": "1 65269U 25182C   25311.23935255  .00080711  40693-5  30027-3 0  9991",
    "tle2": "2 65269  96.5905 242.3042 0009531 325.9689  34.0973 15.88040145 12310"
  },
  {
    "name": "STARLINK-31607",
    "tle1": "1 59394U 24062W   25312.14783008 -.00001701  00000+0 -45341-4 0  9999",
    "tle2": "2 59394  53.1602 100.1517 0001330  82.4119 277.7033 15.30179223 91053"
  },
  {
    "name": "STARLINK-30846",
    "tle1": "1 58210U 23170E   25311.94257197 -.00000137  00000+0  49402-5 0  9990",
    "tle2": "2 58210  43.0017 137.6224 0001138 268.0762  91.9950 15.02532901111961"
  },
  {
    "name": "COSMOS 1655",
    "tle1": "1 15751U 85041A   25311.88890564  .00000087  00000+0  79390-4 0  9993",
    "tle2": "2 15751  82.9505 229.5507 0026660 354.2121  75.8670 13.71913556 24356"
  }
]